******** Week 758 almanac for PRN-18 ********
ID:                         18
Health:                     000
Eccentricity:               6.1130523682E-004
Time of Applicability(s):  520192.0000
Orbital Inclination(rad):   0.0203252454
Rate of Right Ascen(r/s):   1.4629180800E-009
SQRT(A)  (m 1/2):           6493.411133
Right Ascen at Week(rad):   2.0037515430E+000
Argument of Perigee(rad):  -1.216541141
Mean Anom(rad):             1.9695388280E+000
Af0(s):                    -6.5994260000E-004
Af1(s/s):                   3.6379800000E-011
week:                        758

******** Week 816 almanac for PRN-19 ********
ID:                         19
Health:                     000
Eccentricity:               6.8521499634E-004
Time of Applicability(s):   81920.0000
Orbital Inclination(rad):   0.0245676611
Rate of Right Ascen(r/s):  -6.9945770700E-009
SQRT(A)  (m 1/2):           5282.569824
Right Ascen at Week(rad):   2.6392090770E+000
Argument of Perigee(rad):  -0.993779117
Mean Anom(rad):            -5.1592987000E-001
Af0(s):                     9.5653530000E-004
Af1(s/s):                   1.4551900000E-011
week:                        816

******** Week 816 almanac for PRN-20 ********
ID:                         20
Health:                     000
Eccentricity:               6.5565109253E-004
Time of Applicability(s):   81920.0000
Orbital Inclination(rad):   0.0245616689
Rate of Right Ascen(r/s):  -6.9945770700E-009
SQRT(A)  (m 1/2):           5282.573730
Right Ascen at Week(rad):   2.6398296350E+000
Argument of Perigee(rad):  -0.412842691
Mean Anom(rad):            -3.3982056200E-001
Af0(s):                    -8.1443790000E-004
Af1(s/s):                   7.2759600000E-012
week:                        816

******** Week 816 almanac for PRN-21 ********
ID:                         21
Health:                     000
Eccentricity:               5.5742263794E-004
Time of Applicability(s):   81920.0000
Orbital Inclination(rad):   0.0238486076
Rate of Right Ascen(r/s):  -6.9945770700E-009
SQRT(A)  (m 1/2):           5282.571777
Right Ascen at Week(rad):   2.6414568680E+000
Argument of Perigee(rad):  -0.622839643
Mean Anom(rad):            -2.4600314320E+000
Af0(s):                    -9.3746190000E-004
Af1(s/s):                   3.6379800000E-012
week:                        816

******** Week 816 almanac for PRN-22 ********
ID:                         22
Health:                     001
Eccentricity:               5.8174133301E-004
Time of Applicability(s):   81920.0000
Orbital Inclination(rad):   0.0238545997
Rate of Right Ascen(r/s):  -6.9945770700E-009
SQRT(A)  (m 1/2):           5282.570801
Right Ascen at Week(rad):   2.6413752260E+000
Argument of Perigee(rad):   0.191770069
Mean Anom(rad):            -2.4931547060E+000
Af0(s):                    -9.4985960000E-004
Af1(s/s):                   0.0000000000E+000
week:                        816

******** Week 816 almanac for PRN-23 ********
ID:                         23
Health:                     001
Eccentricity:               4.1818618774E-004
Time of Applicability(s):   81920.0000
Orbital Inclination(rad):   0.0061179468
Rate of Right Ascen(r/s):  -7.1202965900E-009
SQRT(A)  (m 1/2):           5282.562988
Right Ascen at Week(rad):  -1.5390879400E+000
Argument of Perigee(rad):  -1.604204601
Mean Anom(rad):             3.7496130500E-001
Af0(s):                    -9.6130370000E-004
Af1(s/s):                   0.0000000000E+000
week:                        816

******** Week 816 almanac for PRN-24 ********
ID:                         24
Health:                     001
Eccentricity:               4.3582916260E-004
Time of Applicability(s):   81920.0000
Orbital Inclination(rad):   0.0061119547
Rate of Right Ascen(r/s):  -7.1202965900E-009
SQRT(A)  (m 1/2):           5282.560059
Right Ascen at Week(rad):  -1.5392688270E+000
Argument of Perigee(rad):  -0.158185028
Mean Anom(rad):             5.2416790100E-001
Af0(s):                    -9.6416470000E-004
Af1(s/s):                   0.0000000000E+000
week:                        816

******** Week 816 almanac for PRN-25 ********
ID:                         25
Health:                     000
Eccentricity:               3.7765502930E-004
Time of Applicability(s):   69632.0000
Orbital Inclination(rad):   0.0074122431
Rate of Right Ascen(r/s):  -7.1088675400E-009
SQRT(A)  (m 1/2):           5282.566406
Right Ascen at Week(rad):  -1.5644001210E+000
Argument of Perigee(rad):   0.023262504
Mean Anom(rad):            -2.1495872020E+000
Af0(s):                    -8.6593630000E-004
Af1(s/s):                   7.2759600000E-012
week:                        816

******** Week 816 almanac for PRN-26 ********
ID:                         26
Health:                     000
Eccentricity:               6.6184997559E-004
Time of Applicability(s):   69632.0000
Orbital Inclination(rad):   0.0074661721
Rate of Right Ascen(r/s):  -7.1088675400E-009
SQRT(A)  (m 1/2):           5282.565918
Right Ascen at Week(rad):  -1.5638289980E+000
Argument of Perigee(rad):   0.151101602
Mean Anom(rad):            -7.1444256400E-001
Af0(s):                     8.6116790000E-004
Af1(s/s):                  -3.6379800000E-012
week:                        816

******** Week 816 almanac for PRN-27 ********
ID:                         27
Health:                     000
Eccentricity:               6.4563751221E-004
Time of Applicability(s):   69632.0000
Orbital Inclination(rad):   0.0241542053
Rate of Right Ascen(r/s):  -6.6631346900E-009
SQRT(A)  (m 1/2):           5282.579102
Right Ascen at Week(rad):   5.6442553400E-001
Argument of Perigee(rad):   1.274584112
Mean Anom(rad):            -7.9442977500E-001
Af0(s):                     5.8555600000E-004
Af1(s/s):                   7.2759600000E-012
week:                        816

******** Week 816 almanac for PRN-28 ********
ID:                         28
Health:                     000
Eccentricity:               2.3555755615E-004
Time of Applicability(s):   69632.0000
Orbital Inclination(rad):   0.0240523394
Rate of Right Ascen(r/s):  -6.6631346900E-009
SQRT(A)  (m 1/2):           5282.579102
Right Ascen at Week(rad):   5.6424315000E-001
Argument of Perigee(rad):  -3.104564020
Mean Anom(rad):            -1.9099798520E+000
Af0(s):                    -3.5285950000E-005
Af1(s/s):                   3.6379800000E-012
week:                        816

******** Week 816 almanac for PRN-29 ********
ID:                         29
Health:                     000
Eccentricity:               2.7942657471E-004
Time of Applicability(s):   69632.0000
Orbital Inclination(rad):   0.0229198301
Rate of Right Ascen(r/s):  -6.6631346900E-009
SQRT(A)  (m 1/2):           5282.577148
Right Ascen at Week(rad):   5.2583707900E-001
Argument of Perigee(rad):   1.889583825
Mean Anom(rad):            -2.9761564210E+000
Af0(s):                     4.3678280000E-004
Af1(s/s):                   3.6379800000E-012
week:                        816

